[{"OBJECT_NAME":"2023-174CC","OBJECT_ID":"2023-174CC","EPOCH":"2024-01-29T10:55:26.236992","MEAN_MOTION":15.16376794,"ECCENTRICITY":0.0009316,"INCLINATION":97.4666,"RA_OF_ASC_NODE":106.1287,"ARG_OF_PERICENTER":344.5168,"MEAN_ANOMALY":15.5778,"EPHEMERIS_TYPE":0,"CLASSIFICATION_TYPE":"U","NORAD_CAT_ID":58330,"ELEMENT_SET_NO":999,"REV_AT_EPOCH":1252,"BSTAR":0.00045791,"MEAN_MOTION_DOT":8.836e-5,"MEAN_MOTION_DDOT":0},{"OBJECT_NAME":"BRO-10","OBJECT_ID":"2023-174CD","EPOCH":"2024-01-29T10:34:46.789248","MEAN_MOTION":15.16956489,"ECCENTRICITY":0.0009625,"INCLINATION":97.4676,"RA_OF_ASC_NODE":106.1591,"ARG_OF_PERICENTER":342.9816,"MEAN_ANOMALY":17.1093,"EPHEMERIS_TYPE":0,"CLASSIFICATION_TYPE":"U","NORAD_CAT_ID":58331,"ELEMENT_SET_NO":999,"REV_AT_EPOCH":1252,"BSTAR":0.00076419,"MEAN_MOTION_DOT":0.00015051,"MEAN_MOTION_DDOT":0},{"OBJECT_NAME":"LEMUR-2-MARAPAMASM","OBJECT_ID":"2023-174CE","EPOCH":"2024-01-29T03:29:22.208352","MEAN_MOTION":15.18308718,"ECCENTRICITY":0.0009697,"INCLINATION":97.4677,"RA_OF_ASC_NODE":105.9316,"ARG_OF_PERICENTER":340.7114,"MEAN_ANOMALY":19.3752,"EPHEMERIS_TYPE":0,"CLASSIFICATION_TYPE":"U","NORAD_CAT_ID":58332,"ELEMENT_SET_NO":999,"REV_AT_EPOCH":1248,"BSTAR":0.0011405,"MEAN_MOTION_DOT":0.00023411,"MEAN_MOTION_DDOT":0},{"OBJECT_NAME":"LEMUR-2-THE-CLEANER","OBJECT_ID":"2023-174CF","EPOCH":"2024-01-28T18:23:10.285728","MEAN_MOTION":15.17585153,"ECCENTRICITY":0.0009757,"INCLINATION":97.4687,"RA_OF_ASC_NODE":105.53,"ARG_OF_PERICENTER":339.513,"MEAN_ANOMALY":20.5711,"EPHEMERIS_TYPE":0,"CLASSIFICATION_TYPE":"U","NORAD_CAT_ID":58333,"ELEMENT_SET_NO":999,"REV_AT_EPOCH":1242,"BSTAR":0.00081665,"MEAN_MOTION_DOT":0.00016384,"MEAN_MOTION_DDOT":0},{"OBJECT_NAME":"OUTPOST MISSION 2","OBJECT_ID":"2023-174CG","EPOCH":"2024-01-29T10:48:09.649152","MEAN_MOTION":15.16520244,"ECCENTRICITY":0.0011709,"INCLINATION":97.4776,"RA_OF_ASC_NODE":106.2461,"ARG_OF_PERICENTER":342.628,"MEAN_ANOMALY":17.4551,"EPHEMERIS_TYPE":0,"CLASSIFICATION_TYPE":"U","NORAD_CAT_ID":58334,"ELEMENT_SET_NO":999,"REV_AT_EPOCH":1252,"BSTAR":0.00048611,"MEAN_MOTION_DOT":9.429e-5,"MEAN_MOTION_DDOT":0},{"OBJECT_NAME":"LEMUR-2-MANGO2A","OBJECT_ID":"2023-174CH","EPOCH":"2024-01-28T15:45:14.060736","MEAN_MOTION":15.19381062,"ECCENTRICITY":0.0009888,"INCLINATION":97.4685,"RA_OF_ASC_NODE":105.5325,"ARG_OF_PERICENTER":339.9608,"MEAN_ANOMALY":20.1237,"EPHEMERIS_TYPE":0,"CLASSIFICATION_TYPE":"U","NORAD_CAT_ID":58335,"ELEMENT_SET_NO":999,"REV_AT_EPOCH":1241,"BSTAR":0.0012535,"MEAN_MOTION_DOT":0.00026558,"MEAN_MOTION_DDOT":0},{"OBJECT_NAME":"LEMUR-2-JK0903EM1407","OBJECT_ID":"2023-174CJ","EPOCH":"2024-01-28T17:21:11.996064","MEAN_MOTION":15.16578647,"ECCENTRICITY":0.0009602,"INCLINATION":97.468,"RA_OF_ASC_NODE":105.4353,"ARG_OF_PERICENTER":344.1209,"MEAN_ANOMALY":15.9721,"EPHEMERIS_TYPE":0,"CLASSIFICATION_TYPE":"U","NORAD_CAT_ID":58336,"ELEMENT_SET_NO":999,"REV_AT_EPOCH":1241,"BSTAR":0.00048522,"MEAN_MOTION_DOT":9.422e-5,"MEAN_MOTION_DDOT":0},{"OBJECT_NAME":"LEMUR-2-MANGO2B","OBJECT_ID":"2023-174CK","EPOCH":"2024-01-28T17:18:58.520160","MEAN_MOTION":15.19390409,"ECCENTRICITY":0.001083,"INCLINATION":97.4738,"RA_OF_ASC_NODE":105.6554,"ARG_OF_PERICENTER":340.0581,"MEAN_ANOMALY":20.0229,"EPHEMERIS_TYPE":0,"CLASSIFICATION_TYPE":"U","NORAD_CAT_ID":58337,"ELEMENT_SET_NO":999,"REV_AT_EPOCH":1242,"BSTAR":0.0014971,"MEAN_MOTION_DOT":0.00031771,"MEAN_MOTION_DDOT":0},{"OBJECT_NAME":"BARRY-1","OBJECT_ID":"2023-174CL","EPOCH":"2024-01-29T03:37:33.026880","MEAN_MOTION":15.17861305,"ECCENTRICITY":0.0010104,"INCLINATION":97.4718,"RA_OF_ASC_NODE":105.9701,"ARG_OF_PERICENTER":338.1949,"MEAN_ANOMALY":21.8853,"EPHEMERIS_TYPE":0,"CLASSIFICATION_TYPE":"U","NORAD_CAT_ID":58338,"ELEMENT_SET_NO":999,"REV_AT_EPOCH":1248,"BSTAR":0.00085682,"MEAN_MOTION_DOT":0.00017334,"MEAN_MOTION_DDOT":0},{"OBJECT_NAME":"PLATFORM-5","OBJECT_ID":"2023-174CM","EPOCH":"2024-01-29T09:58:52.158144","MEAN_MOTION":15.17786077,"ECCENTRICITY":0.0010979,"INCLINATION":97.4772,"RA_OF_ASC_NODE":106.2866,"ARG_OF_PERICENTER":338.0941,"MEAN_ANOMALY":21.9822,"EPHEMERIS_TYPE":0,"CLASSIFICATION_TYPE":"U","NORAD_CAT_ID":58339,"ELEMENT_SET_NO":999,"REV_AT_EPOCH":1252,"BSTAR":0.00095778,"MEAN_MOTION_DOT":0.00019352,"MEAN_MOTION_DDOT":0},{"OBJECT_NAME":"LEMUR-2-MJR092620","OBJECT_ID":"2023-174CN","EPOCH":"2024-01-28T04:30:20.955456","MEAN_MOTION":15.16723846,"ECCENTRICITY":0.0010862,"INCLINATION":97.4746,"RA_OF_ASC_NODE":104.9857,"ARG_OF_PERICENTER":342.6644,"MEAN_ANOMALY":17.4217,"EPHEMERIS_TYPE":0,"CLASSIFICATION_TYPE":"U","NORAD_CAT_ID":58340,"ELEMENT_SET_NO":999,"REV_AT_EPOCH":1233,"BSTAR":0.00052608,"MEAN_MOTION_DOT":0.00010268,"MEAN_MOTION_DDOT":0},{"OBJECT_NAME":"NINJASAT","OBJECT_ID":"2023-174CP","EPOCH":"2024-01-29T10:10:56.754336","MEAN_MOTION":15.17366831,"ECCENTRICITY":0.0009467,"INCLINATION":97.4714,"RA_OF_ASC_NODE":106.2131,"ARG_OF_PERICENTER":336.7995,"MEAN_ANOMALY":23.281,"EPHEMERIS_TYPE":0,"CLASSIFICATION_TYPE":"U","NORAD_CAT_ID":58341,"ELEMENT_SET_NO":999,"REV_AT_EPOCH":1252,"BSTAR":0.00084833,"MEAN_MOTION_DOT":0.00016916,"MEAN_MOTION_DDOT":0},{"OBJECT_NAME":"PEARL 1C","OBJECT_ID":"2023-174CQ","EPOCH":"2024-01-29T10:15:05.826528","MEAN_MOTION":15.16959444,"ECCENTRICITY":0.0011385,"INCLINATION":97.4742,"RA_OF_ASC_NODE":106.2411,"ARG_OF_PERICENTER":332.2622,"MEAN_ANOMALY":27.8003,"EPHEMERIS_TYPE":0,"CLASSIFICATION_TYPE":"U","NORAD_CAT_ID":58342,"ELEMENT_SET_NO":999,"REV_AT_EPOCH":1252,"BSTAR":0.00053229,"MEAN_MOTION_DOT":0.00010462,"MEAN_MOTION_DDOT":0},{"OBJECT_NAME":"O3B MPOWER F5","OBJECT_ID":"2023-175A","EPOCH":"2024-01-09T21:24:11.906208","MEAN_MOTION":6.16537447,"ECCENTRICITY":0.1198979,"INCLINATION":4.5918,"RA_OF_ASC_NODE":125.3849,"ARG_OF_PERICENTER":320.9284,"MEAN_ANOMALY":30.9448,"EPHEMERIS_TYPE":0,"CLASSIFICATION_TYPE":"U","NORAD_CAT_ID":58346,"ELEMENT_SET_NO":999,"REV_AT_EPOCH":410,"BSTAR":-0.031132,"MEAN_MOTION_DOT":2.0e-8,"MEAN_MOTION_DDOT":0},{"OBJECT_NAME":"O3B MPOWER F6","OBJECT_ID":"2023-175B","EPOCH":"2024-01-09T21:24:41.988960","MEAN_MOTION":6.08779215,"ECCENTRICITY":0.1067789,"INCLINATION":3.9018,"RA_OF_ASC_NODE":128.5125,"ARG_OF_PERICENTER":321.5427,"MEAN_ANOMALY":31.2489,"EPHEMERIS_TYPE":0,"CLASSIFICATION_TYPE":"U","NORAD_CAT_ID":58347,"ELEMENT_SET_NO":999,"REV_AT_EPOCH":410,"BSTAR":-0.040328,"MEAN_MOTION_DOT":0,"MEAN_MOTION_DDOT":0},{"OBJECT_NAME":"HAIYANG-3A","OBJECT_ID":"2023-176A","EPOCH":"2024-01-29T10:41:48.831648","MEAN_MOTION":14.34100665,"ECCENTRICITY":0.0016027,"INCLINATION":98.6383,"RA_OF_ASC_NODE":101.9794,"ARG_OF_PERICENTER":85.0636,"MEAN_ANOMALY":275.2378,"EPHEMERIS_TYPE":0,"CLASSIFICATION_TYPE":"U","NORAD_CAT_ID":58349,"ELEMENT_SET_NO":999,"REV_AT_EPOCH":1064,"BSTAR":0.00011962,"MEAN_MOTION_DOT":2.91e-6,"MEAN_MOTION_DDOT":0},{"OBJECT_NAME":"STARLINK-30901","OBJECT_ID":"2023-177A","EPOCH":"2024-01-29T14:00:01.000224","MEAN_MOTION":15.76462946,"ECCENTRICITY":0.0004381,"INCLINATION":42.9995,"RA_OF_ASC_NODE":190.1334,"ARG_OF_PERICENTER":348.5307,"MEAN_ANOMALY":191.2823,"EPHEMERIS_TYPE":0,"CLASSIFICATION_TYPE":"U","NORAD_CAT_ID":58351,"ELEMENT_SET_NO":999,"REV_AT_EPOCH":1261,"BSTAR":0.0010217,"MEAN_MOTION_DOT":0.00170053,"MEAN_MOTION_DDOT":0}]
