58330,OBJECT CC,2023,94.97,-1.0,+,97.47,Active,0,LEO,USA,To Be Determined,Unknown,Unknown,Unknown,1 58330U 23174CC  24029.45516478  .00008836  00000+0  45791-3 0  9996,2 58330  97.4666 106.1287 0009316 344.5168  15.5778 15.16376794 12526,15.16376794,0.0009316,LEO
58331,BRO-10,2023,94.93,-1.0,+,97.47,Active,0,LEO,USA,France,Unknown,Unknown,Unknown,1 58331U 23174CD  24029.44081932  .00015051  00000+0  76419-3 0  9996,2 58331  97.4676 106.1591 0009625 342.9816  17.1093 15.16956489 12524,15.16956489,0.0009625,LEO
58332,LEMUR-2-MARAPAMASM,2023,94.85,-1.0,+,97.47,Active,0,LEO,USA,USA,Unknown,Unknown,Unknown,1 58332U 23174CE  24029.14539593  .00023411  00000+0  11405-2 0  9997,2 58332  97.4677 105.9316 0009697 340.7114  19.3752 15.18308718 12483,15.18308718,0.0009697,LEO
58333,LEMUR-2-THE-CLEANER,2023,94.89,-1.0,+,97.47,Active,0,LEO,USA,USA,Unknown,Unknown,Unknown,1 58333U 23174CF  24028.76609127  .00016384  00000+0  81665-3 0  9993,2 58333  97.4687 105.5300 0009757 339.5130  20.5711 15.17585153 12427,15.17585153,0.0009757,LEO
58334,OUTPOST MISSION 2,2023,94.96,-1.0,+,97.48,Active,0,LEO,USA,USA,Unknown,Unknown,Unknown,1 58334U 23174CG  24029.45011168  .00009429  00000+0  48611-3 0  9999,2 58334  97.4776 106.2461 0011709 342.6280  17.4551 15.16520244 12521,15.16520244,0.0011709,LEO
58335,LEMUR-2-MANGO2A,2023,94.78,-1.0,+,97.47,Active,0,LEO,USA,USA,Unknown,Unknown,Unknown,1 58335U 23174CH  24028.65641274  .00026558  00000+0  12535-2 0  9995,2 58335  97.4685 105.5325 0009888 339.9608  20.1237 15.19381062 12416,15.19381062,0.0009888,LEO
58336,LEMUR-2-JK0903EM1407,2023,94.95,-1.0,+,97.47,Active,0,LEO,USA,USA,Unknown,Unknown,Unknown,1 58336U 23174CJ  24028.72305551  .00009422  00000+0  48522-3 0  9996,2 58336  97.4680 105.4353 0009602 344.1209  15.9721 15.16578647 12415,15.16578647,0.0009602,LEO
58337,LEMUR-2-MANGO2B,2023,94.78,-1.0,+,97.47,Active,0,LEO,USA,USA,Unknown,Unknown,Unknown,1 58337U 23174CK  24028.72151065  .00031771  00000+0  14971-2 0  9998,2 58337  97.4738 105.6554 0010830 340.0581  20.0229 15.19390409 12420,15.19390409,0.001083,LEO
58338,BARRY-1,2023,94.87,-1.0,+,97.47,Active,0,LEO,USA,USA,Unknown,Unknown,Unknown,1 58338U 23174CL  24029.15107670  .00017334  00000+0  85682-3 0  9997,2 58338  97.4718 105.9701 0010104 338.1949  21.8853 15.17861305 12480,15.17861305,0.0010104,LEO
58339,PLATFORM-5,2023,94.88,-1.0,+,97.48,Active,0,LEO,USA,Bulgaria,Unknown,Unknown,Unknown,1 58339U 23174CM  24029.41588146  .00019352  00000+0  95778-3 0  9997,2 58339  97.4772 106.2866 0010979 338.0941  21.9822 15.17786077 12522,15.17786077,0.0010979,LEO
58340,LEMUR-2-MJR092620,2023,94.94,-1.0,+,97.48,Active,0,LEO,USA,USA,Unknown,Unknown,Unknown,1 58340U 23174CN  24028.18774254  .00010268  00000+0  52608-3 0  9991,2 58340  97.4746 104.9857 0010862 342.6644  17.4217 15.16723846 12333,15.16723846,0.0010862,LEO
58341,NINJASAT,2023,94.9,-1.0,+,97.47,Active,0,LEO,USA,Japan,Unknown,Unknown,Unknown,1 58341U 23174CP  24029.42426799  .00016916  00000+0  84833-3 0  9999,2 58341  97.4714 106.2131 0009467 336.7995  23.2810 15.17366831 12524,15.17366831,0.0009467,LEO
58342,PEARL 1C,2023,94.93,-1.0,+,97.47,Active,0,LEO,USA,Taiwan,Unknown,Unknown,Unknown,1 58342U 23174CQ  24029.42715077  .00010462  00000+0  53229-3 0  9995,2 58342  97.4742 106.2411 0011385 332.2622  27.8003 15.16959444 12528,15.16959444,0.0011385,LEO
58346,O3B MPOWER F5,2023,233.56,-1.0,P,4.59,Active,0,MEO,USA,O3b Networks,Unknown,Unknown,Unknown,1 58346U 23175A   24009.89180447  .00000002  00000+0 -31132-1 0  9993,2 58346   4.5918 125.3849 1198979 320.9284  30.9448  6.16537447  4105,6.16537447,0.1198979,MEO
58347,O3B MPOWER F6,2023,236.54,-1.0,P,3.9,Active,0,MEO,USA,O3b Networks,Unknown,Unknown,Unknown,1 58347U 23175B   24009.89215265  .00000000  00000+0 -40328-1 0  9996,2 58347   3.9018 128.5125 1067789 321.5427  31.2489  6.08779215  4103,6.08779215,0.1067789,MEO
58349,HAIYANG-3A,2023,100.41,-1.0,+,98.64,Active,0,LEO,PRC,China,Unknown,Unknown,Unknown,1 58349U 23176A   24029.44570407  .00000291  00000+0  11962-3 0  9999,2 58349  98.6383 101.9794 0016027  85.0636 275.2378 14.34100665 10648,14.34100665,0.0016027,LEO
58351,STARLINK-30901,2023,91.39,-1.0,P,43.0,Active,0,LEO,USA,USA,Unknown,Unknown,Falcon,1 58351U 23177A   24029.58334491  .00170053  00000+0  10217-2 0  9994,2 58351  42.9995 190.1334 0004381 348.5307 191.2823 15.76462946 12615,15.76462946,0.0004381,LEO
